SL-3 R/B                
1 13403U 82079B   25327.04188596  .00005181  00000+0  21546-3 0  9992
2 13403  81.1460 318.8765 0025995 163.1367 197.0735 15.23277986361459
SL-14 R/B               
1 13553U 82092B   25327.02934493  .00000622  00000+0  67340-4 0  9994
2 13553  82.5689 241.1430 0018980 297.6358 144.4555 14.86524812313082
SL-3 R/B                
1 13819U 83010B   25326.92910722  .00013107  00000+0  29752-3 0  9993
2 13819  81.1024 132.7863 0018103  59.2723 301.0300 15.42736657341462
SL-3 R/B                
1 14208U 83075B   25327.04596104  .00009862  00000+0  28554-3 0  9997
2 14208  97.6100 322.8770 0020967 249.1932 110.7065 15.35583264313776
COSMOS 1536             
1 14699U 84013A   25327.08747174  .00005931  00000+0  25620-3 0  9997
2 14699  82.5469 213.6469 0013543 302.9265  57.0668 15.22213352256392
SL-14 R/B               
1 14820U 84027B   25327.09345042  .00000497  00000+0  54268-4 0  9990
2 14820  82.5415 344.9822 0017166 331.1366  28.8899 14.85843776231809
SL-8 R/B                
1 15483U 85006B   25326.86147205  .00000315  00000+0  11337-3 0  9997
2 15483  74.0449  97.7057 0017866  35.8911  81.4110 14.37703146138677
SL-12 R/B(2)            
1 15772U 85042D   25327.12087696  .00000029  00000+0  34816-4 0  9995
2 15772  71.1077 312.8676 0037546 290.2280 140.6325 14.21942670 99249
SL-14 R/B               
1 15945U 85069B   25326.90859968  .00000658  00000+0  71815-4 0  9998
2 15945  82.5248 125.3467 0018737 181.7008 178.4148 14.86289067156976
SL-16 R/B               
1 16182U 85097B   25327.07118169  .00000216  00000+0  13218-3 0  9995
2 16182  71.0042   5.0122 0005641  45.9719 338.7128 14.16581282 72138
SL-14 R/B               
1 16496U 86006B   25327.11350895  .00000734  00000+0  75930-4 0  9998
2 16496  82.5276   0.0189 0075188 265.9089  93.3532 14.86632194133370
COSMOS 1743             
1 16719U 86034A   25327.11130977  .00022956  00000+0  39649-3 0  9990
2 16719  82.5354 184.9559 0005821 340.2095  19.8930 15.50831427163694
