CCSDS_OMM_VERS = 2.0
CREATION_DATE  = 
ORIGINATOR     = 

OBJECT_NAME    = SL-3 R/B
OBJECT_ID      = 1982-079B
CENTER_NAME    = EARTH
REF_FRAME      = TEME
TIME_SYSTEM    = UTC
MEAN_ELEMENT_THEORY = SGP/SGP4

EPOCH          = 2025-11-23T01:00:18.946944
MEAN_MOTION    = 15.23277986
ECCENTRICITY   = .0025995
INCLINATION    = 81.1460
RA_OF_ASC_NODE = 318.8765
ARG_OF_PERICENTER = 163.1367
MEAN_ANOMALY   = 197.0735

EPHEMERIS_TYPE = 0
CLASSIFICATION_TYPE = U
NORAD_CAT_ID   = 13403
ELEMENT_SET_NO = 999
REV_AT_EPOCH   = 36145
BSTAR          = .21546E-3
MEAN_MOTION_DOT = .5181E-4
MEAN_MOTION_DDOT = 0

CCSDS_OMM_VERS = 2.0
CREATION_DATE  = 
ORIGINATOR     = 

OBJECT_NAME    = SL-14 R/B
OBJECT_ID      = 1982-092B
CENTER_NAME    = EARTH
REF_FRAME      = TEME
TIME_SYSTEM    = UTC
MEAN_ELEMENT_THEORY = SGP/SGP4

EPOCH          = 2025-11-23T00:42:15.401952
MEAN_MOTION    = 14.86524812
ECCENTRICITY   = .001898
INCLINATION    = 82.5689
RA_OF_ASC_NODE = 241.1430
ARG_OF_PERICENTER = 297.6358
MEAN_ANOMALY   = 144.4555

EPHEMERIS_TYPE = 0
CLASSIFICATION_TYPE = U
NORAD_CAT_ID   = 13553
ELEMENT_SET_NO = 999
REV_AT_EPOCH   = 31308
BSTAR          = .6734E-4
MEAN_MOTION_DOT = .622E-5
MEAN_MOTION_DDOT = 0

CCSDS_OMM_VERS = 2.0
CREATION_DATE  = 
ORIGINATOR     = 

OBJECT_NAME    = SL-3 R/B
OBJECT_ID      = 1983-010B
CENTER_NAME    = EARTH
REF_FRAME      = TEME
TIME_SYSTEM    = UTC
MEAN_ELEMENT_THEORY = SGP/SGP4

EPOCH          = 2025-11-22T22:17:54.863808
MEAN_MOTION    = 15.42736657
ECCENTRICITY   = .0018103
INCLINATION    = 81.1024
RA_OF_ASC_NODE = 132.7863
ARG_OF_PERICENTER = 59.2723
MEAN_ANOMALY   = 301.0300

EPHEMERIS_TYPE = 0
CLASSIFICATION_TYPE = U
NORAD_CAT_ID   = 13819
ELEMENT_SET_NO = 999
REV_AT_EPOCH   = 34146
BSTAR          = .29752E-3
MEAN_MOTION_DOT = .13107E-3
MEAN_MOTION_DDOT = 0

CCSDS_OMM_VERS = 2.0
CREATION_DATE  = 
ORIGINATOR     = 

OBJECT_NAME    = SL-3 R/B
OBJECT_ID      = 1983-075B
CENTER_NAME    = EARTH
REF_FRAME      = TEME
TIME_SYSTEM    = UTC
MEAN_ELEMENT_THEORY = SGP/SGP4

EPOCH          = 2025-11-23T01:06:11.033856
MEAN_MOTION    = 15.35583264
ECCENTRICITY   = .0020967
INCLINATION    = 97.6100
RA_OF_ASC_NODE = 322.8770
ARG_OF_PERICENTER = 249.1932
MEAN_ANOMALY   = 110.7065

EPHEMERIS_TYPE = 0
CLASSIFICATION_TYPE = U
NORAD_CAT_ID   = 14208
ELEMENT_SET_NO = 999
REV_AT_EPOCH   = 31377
BSTAR          = .28554E-3
MEAN_MOTION_DOT = .9862E-4
MEAN_MOTION_DDOT = 0

CCSDS_OMM_VERS = 2.0
CREATION_DATE  = 
ORIGINATOR     = 

OBJECT_NAME    = COSMOS 1536
OBJECT_ID      = 1984-013A
CENTER_NAME    = EARTH
REF_FRAME      = TEME
TIME_SYSTEM    = UTC
MEAN_ELEMENT_THEORY = SGP/SGP4

EPOCH          = 2025-11-23T02:05:57.558336
MEAN_MOTION    = 15.22213352
ECCENTRICITY   = .0013543
INCLINATION    = 82.5469
RA_OF_ASC_NODE = 213.6469
ARG_OF_PERICENTER = 302.9265
MEAN_ANOMALY   = 57.0668

EPHEMERIS_TYPE = 0
CLASSIFICATION_TYPE = U
NORAD_CAT_ID   = 14699
ELEMENT_SET_NO = 999
REV_AT_EPOCH   = 25639
BSTAR          = .2562E-3
MEAN_MOTION_DOT = .5931E-4
MEAN_MOTION_DDOT = 0

CCSDS_OMM_VERS = 2.0
CREATION_DATE  = 
ORIGINATOR     = 

OBJECT_NAME    = SL-14 R/B
OBJECT_ID      = 1984-027B
CENTER_NAME    = EARTH
REF_FRAME      = TEME
TIME_SYSTEM    = UTC
MEAN_ELEMENT_THEORY = SGP/SGP4

EPOCH          = 2025-11-23T02:14:34.116288
MEAN_MOTION    = 14.85843776
ECCENTRICITY   = .0017166
INCLINATION    = 82.5415
RA_OF_ASC_NODE = 344.9822
ARG_OF_PERICENTER = 331.1366
MEAN_ANOMALY   = 28.8899

EPHEMERIS_TYPE = 0
CLASSIFICATION_TYPE = U
NORAD_CAT_ID   = 14820
ELEMENT_SET_NO = 999
REV_AT_EPOCH   = 23180
BSTAR          = .54268E-4
MEAN_MOTION_DOT = .497E-5
MEAN_MOTION_DDOT = 0

CCSDS_OMM_VERS = 2.0
CREATION_DATE  = 
ORIGINATOR     = 

OBJECT_NAME    = SL-8 R/B
OBJECT_ID      = 1985-006B
CENTER_NAME    = EARTH
REF_FRAME      = TEME
TIME_SYSTEM    = UTC
MEAN_ELEMENT_THEORY = SGP/SGP4

EPOCH          = 2025-11-22T20:40:31.185120
MEAN_MOTION    = 14.37703146
ECCENTRICITY   = .0017866
INCLINATION    = 74.0449
RA_OF_ASC_NODE = 97.7057
ARG_OF_PERICENTER = 35.8911
MEAN_ANOMALY   = 81.4110

EPHEMERIS_TYPE = 0
CLASSIFICATION_TYPE = U
NORAD_CAT_ID   = 15483
ELEMENT_SET_NO = 999
REV_AT_EPOCH   = 13867
BSTAR          = .11337E-3
MEAN_MOTION_DOT = .315E-5
MEAN_MOTION_DDOT = 0

CCSDS_OMM_VERS = 2.0
CREATION_DATE  = 
ORIGINATOR     = 

OBJECT_NAME    = SL-12 R/B(2)
OBJECT_ID      = 1985-042D
CENTER_NAME    = EARTH
REF_FRAME      = TEME
TIME_SYSTEM    = UTC
MEAN_ELEMENT_THEORY = SGP/SGP4

EPOCH          = 2025-11-23T02:54:03.769344
MEAN_MOTION    = 14.21942670
ECCENTRICITY   = .0037546
INCLINATION    = 71.1077
RA_OF_ASC_NODE = 312.8676
ARG_OF_PERICENTER = 290.2280
MEAN_ANOMALY   = 140.6325

EPHEMERIS_TYPE = 0
CLASSIFICATION_TYPE = U
NORAD_CAT_ID   = 15772
ELEMENT_SET_NO = 999
REV_AT_EPOCH   = 9924
BSTAR          = .34816E-4
MEAN_MOTION_DOT = .29E-6
MEAN_MOTION_DDOT = 0

CCSDS_OMM_VERS = 2.0
CREATION_DATE  = 
ORIGINATOR     = 

OBJECT_NAME    = SL-14 R/B
OBJECT_ID      = 1985-069B
CENTER_NAME    = EARTH
REF_FRAME      = TEME
TIME_SYSTEM    = UTC
MEAN_ELEMENT_THEORY = SGP/SGP4

EPOCH          = 2025-11-22T21:48:23.012352
MEAN_MOTION    = 14.86289067
ECCENTRICITY   = .0018737
INCLINATION    = 82.5248
RA_OF_ASC_NODE = 125.3467
ARG_OF_PERICENTER = 181.7008
MEAN_ANOMALY   = 178.4148

EPHEMERIS_TYPE = 0
CLASSIFICATION_TYPE = U
NORAD_CAT_ID   = 15945
ELEMENT_SET_NO = 999
REV_AT_EPOCH   = 15697
BSTAR          = .71815E-4
MEAN_MOTION_DOT = .658E-5
MEAN_MOTION_DDOT = 0

CCSDS_OMM_VERS = 2.0
CREATION_DATE  = 
ORIGINATOR     = 

OBJECT_NAME    = SL-16 R/B
OBJECT_ID      = 1985-097B
CENTER_NAME    = EARTH
REF_FRAME      = TEME
TIME_SYSTEM    = UTC
MEAN_ELEMENT_THEORY = SGP/SGP4

EPOCH          = 2025-11-23T01:42:30.098016
MEAN_MOTION    = 14.16581282
ECCENTRICITY   = .0005641
INCLINATION    = 71.0042
RA_OF_ASC_NODE = 5.0122
ARG_OF_PERICENTER = 45.9719
MEAN_ANOMALY   = 338.7128

EPHEMERIS_TYPE = 0
CLASSIFICATION_TYPE = U
NORAD_CAT_ID   = 16182
ELEMENT_SET_NO = 999
REV_AT_EPOCH   = 7213
BSTAR          = .13218E-3
MEAN_MOTION_DOT = .216E-5
MEAN_MOTION_DDOT = 0

CCSDS_OMM_VERS = 2.0
CREATION_DATE  = 
ORIGINATOR     = 

OBJECT_NAME    = SL-14 R/B
OBJECT_ID      = 1986-006B
CENTER_NAME    = EARTH
REF_FRAME      = TEME
TIME_SYSTEM    = UTC
MEAN_ELEMENT_THEORY = SGP/SGP4

EPOCH          = 2025-11-23T02:43:27.173280
MEAN_MOTION    = 14.86632194
ECCENTRICITY   = .0075188
INCLINATION    = 82.5276
RA_OF_ASC_NODE = 0.0189
ARG_OF_PERICENTER = 265.9089
MEAN_ANOMALY   = 93.3532

EPHEMERIS_TYPE = 0
CLASSIFICATION_TYPE = U
NORAD_CAT_ID   = 16496
ELEMENT_SET_NO = 999
REV_AT_EPOCH   = 13337
BSTAR          = .7593E-4
MEAN_MOTION_DOT = .734E-5
MEAN_MOTION_DDOT = 0

CCSDS_OMM_VERS = 2.0
CREATION_DATE  = 
ORIGINATOR     = 

OBJECT_NAME    = COSMOS 1743
OBJECT_ID      = 1986-034A
CENTER_NAME    = EARTH
REF_FRAME      = TEME
TIME_SYSTEM    = UTC
MEAN_ELEMENT_THEORY = SGP/SGP4

EPOCH          = 2025-11-23T02:40:17.164128
MEAN_MOTION    = 15.50831427
ECCENTRICITY   = .0005821
INCLINATION    = 82.5354
RA_OF_ASC_NODE = 184.9559
ARG_OF_PERICENTER = 340.2095
MEAN_ANOMALY   = 19.8930

EPHEMERIS_TYPE = 0
CLASSIFICATION_TYPE = U
NORAD_CAT_ID   = 16719
ELEMENT_SET_NO = 999
REV_AT_EPOCH   = 16369
BSTAR          = .39649E-3
MEAN_MOTION_DOT = .22956E-3
MEAN_MOTION_DDOT = 0

